[{"OBJECT_NAME":"OBJECT H","OBJECT_ID":"2024-205H","EPOCH":"2026-03-09T23:10:36.271776","MEAN_MOTION":15.29110994,"ECCENTRICITY":0.00105089,"INCLINATION":97.4168,"RA_OF_ASC_NODE":147.1265,"ARG_OF_PERICENTER":38.7838,"MEAN_ANOMALY":321.4154,"EPHEMERIS_TYPE":0,"CLASSIFICATION_TYPE":"U","NORAD_CAT_ID":61901,"ELEMENT_SET_NO":999,"REV_AT_EPOCH":7354,"BSTAR":0.00059497566,"MEAN_MOTION_DOT":0.00016783,"MEAN_MOTION_DDOT":0},{"OBJECT_NAME":"STARLINK-35354","OBJECT_ID":"2025-262X","EPOCH":"2026-03-09T00:04:53.029056","MEAN_MOTION":15.27598085,"ECCENTRICITY":0.00024893,"INCLINATION":43.0041,"RA_OF_ASC_NODE":299.8515,"ARG_OF_PERICENTER":252.6156,"MEAN_ANOMALY":107.4424,"EPHEMERIS_TYPE":0,"CLASSIFICATION_TYPE":"U","NORAD_CAT_ID":66477,"ELEMENT_SET_NO":999,"REV_AT_EPOCH":1880,"BSTAR":0.0014602656,"MEAN_MOTION_DOT":0.00040164,"MEAN_MOTION_DDOT":0}]
